NORAD_CAT_ID,OBJECT_NAME,OBJECT_TYPE,EPOCH,MEAN_MOTION,ECCENTRICITY,INCLINATION,RA_OF_ASC_NODE,ARG_OF_PERICENTER,MEAN_ANOMALY,BSTAR,MEAN_MOTION_DOT,MEAN_MOTION_DDOT,TLE_LINE0,TLE_LINE1,TLE_LINE2,SEMIMAJOR_AXIS,PERIOD,APOGEE,PERIGEE,DECAYED
52587.0,STARLINK-3867,PAYLOAD,2022-07-24 14:00:01,15.20418419,0.0001955,53.2174,303.4173,39.0292,196.8847,-0.052534,-0.01061886,0.0,0 STARLINK-3867,1 52587U 22051BD  22205.58334491 -.01061886  00000-0 -52534-1 0  9997,2 52587  53.2174 303.4173 0001955  39.0292 196.8847 15.20418419  1309,6882.715,94.711,505.925,503.234,0.0
52587.0,STARLINK-3867,PAYLOAD,2022-07-24 22:00:00,15.1966108,0.0001625,53.2174,301.8974,47.6739,213.2833,-0.053929,-0.01065723,0.0,0 STARLINK-3867,1 52587U 22051BD  22205.91667824 -.01065723  00000-0 -53929-1 0  9996,2 52587  53.2174 301.8974 0001625  47.6739 213.2833 15.19661080  1306,6885.001,94.758,507.985,505.747,0.0
52587.0,STARLINK-3867,PAYLOAD,2022-07-25 06:00:00,15.18899032,0.0001742,53.2175,300.3789,40.9543,244.1348,-0.054858,-0.01060707,0.0,0 STARLINK-3867,1 52587U 22051BD  22206.25001157 -.01060707  00000-0 -54858-1 0  9994,2 52587  53.2175 300.3789 0001742  40.9543 244.1348 15.18899032 11869,6887.304,94.806,510.369,507.969,0.0
52587.0,STARLINK-3867,PAYLOAD,2022-07-25 14:00:01,15.18140733,0.0001896,53.2175,298.8654,35.3115,272.9941,-0.0562059999999999,-0.01076378,0.0,0 STARLINK-3867,1 52587U 22051BD  22206.58334491 -.01076378  00000-0 -56206-1 0  9990,2 52587  53.2175 298.8654 0001896  35.3115 272.9941 15.18140733  1307,6889.597,94.853,512.768,510.156,0.0
52587.0,STARLINK-3867,PAYLOAD,2022-07-25 22:00:00,15.17382706,0.0001621,53.2174,297.3506,41.0553,289.5561,-0.057636,-0.01079534,0.0,0 STARLINK-3867,1 52587U 22051BD  22206.91667824 -.01079534  00000-0 -57636-1 0  9991,2 52587  53.2174 297.3506 0001621  41.0553 289.5561 15.17382706  1301,6891.891,94.9,514.874,512.639,0.0
52587.0,STARLINK-3867,PAYLOAD,2022-07-26 06:00:00,15.16619682,0.0001621999999999,53.2175,295.8377,41.5854,310.4201,-0.058503,-0.01072507,0.0,0 STARLINK-3867,1 52587U 22051BD  22207.25001157 -.01072507  00000-0 -58503-1 0  9997,2 52587  53.2175 295.8377 0001622  41.5854 310.4201 15.16619682 12011,6894.203,94.948,517.186,514.9490000000002,0.0
52587.0,STARLINK-3867,PAYLOAD,2022-07-26 14:00:01,15.15863197,0.0001965,53.2174,294.3293,31.637,340.8465,-0.060117,-0.01078081,0.0,0 STARLINK-3867,1 52587U 22051BD  22207.58334491 -.01078081  00000-0 -60117-1 0  9990,2 52587  53.2174 294.3293 0001965  31.6370 340.8465 15.15863197  1304,6896.496,94.995,519.716,517.006,0.0
52587.0,STARLINK-3867,PAYLOAD,2022-07-26 22:00:00,15.15103378,0.0001714,53.2174,292.8196,37.5169,354.5351,-0.061438,-0.0107808,0.0,0 STARLINK-3867,1 52587U 22051BD  22207.91667824 -.01078080  00000-0 -61438-1 0  9992,2 52587  53.2174 292.8196 0001714  37.5169 354.5351 15.15103378  1306,6898.802,95.043,521.849,519.484,0.0
52587.0,STARLINK-3867,PAYLOAD,2022-07-27 06:00:02,15.1434104,0.0001894,53.2175,291.3122,34.0276,16.7433,-0.062425,-0.01072392,0.0,0 STARLINK-3867,1 52587U 22051BD  22208.25002315 -.01072392  00000-0 -62425-1 0  9995,2 52587  53.2175 291.3122 0001894  34.0276  16.7433 15.14341040 12163,6901.1169999999975,95.091,524.289,521.675,0.0
52587.0,STARLINK-3867,PAYLOAD,2022-07-27 14:00:01,15.13584404,0.0002190999999999,53.2175,289.809,28.8955,39.5524,-0.0641149999999999,-0.01077722,0.0,0 STARLINK-3867,1 52587U 22051BD  22208.58334491 -.01077722  00000-0 -64115-1 0  9994,2 52587  53.2175 289.8090 0002191  28.8955  39.5524 15.13584404  1305,6903.417,95.138,526.794,523.769,0.0
52587.0,STARLINK-3867,PAYLOAD,2022-07-27 22:00:00,15.12823989,0.0001696,53.2175,288.3047,42.8135,42.4651,-0.0654179999999999,-0.01076317,0.0,0 STARLINK-3867,1 52587U 22051BD  22208.91667824 -.01076317  00000-0 -65418-1 0  9996,2 52587  53.2175 288.3047 0001696  42.8135  42.4651 15.12823989  1303,6905.73,95.186,528.766,526.423,0.0
52587.0,STARLINK-3867,PAYLOAD,2022-07-28 08:00:01,15.11873162,0.0001794,53.2177,286.4282,47.3135,147.7186,-0.067006,-0.01073646,0.0,0 STARLINK-3867,1 52587U 22051BD  22209.33334491 -.01073646  00000-0 -67006-1 0  9991,2 52587  53.2177 286.4282 0001794  47.3135 147.7186 15.11873162 12327,6908.625,95.246,531.729,529.25,0.0
52587.0,STARLINK-3867,PAYLOAD,2022-07-28 14:00:01,15.11304662,0.0001988,53.2176,285.3048,37.9089,78.2897,-0.068208,-0.01075565,0.0,0 STARLINK-3867,1 52587U 22051BD  22209.58334491 -.01075565  00000-0 -68208-1 0  9995,2 52587  53.2176 285.3048 0001988  37.9089  78.2897 15.11304662  1309,6910.357,95.282,533.596,530.8480000000002,0.0
52587.0,STARLINK-3867,PAYLOAD,2022-07-28 22:00:00,15.10544742,0.0001885,53.2176,283.8055,39.1087,91.1823,-0.069607,-0.01074693,0.0,0 STARLINK-3867,1 52587U 22051BD  22209.91667824 -.01074693  00000-0 -69607-1 0  9996,2 52587  53.2176 283.8055 0001885  39.1087  91.1823 15.10544742  1305,6912.675,95.33,535.8430000000002,533.237,0.0
52587.0,STARLINK-3867,PAYLOAD,2022-07-29 06:00:00,15.09693023,0.0001740999999999,53.2178,282.308,39.6195,103.869,-0.054844,-0.00832755,0.0,0 STARLINK-3867,1 52587U 22051BD  22210.25001157 -.00832755  00000-0 -54844-1 0  9993,2 52587  53.2178 282.3080 0001741  39.6195 103.8690 15.09693023 12462,6915.274,95.384,538.3430000000002,535.935,0.0
52587.0,STARLINK-3867,PAYLOAD,2022-07-29 14:00:01,15.08997368,0.0001568,53.2176,280.8133,45.3673,110.3886,-0.015577,-0.00241045,0.0,0 STARLINK-3867,1 52587U 22051BD  22210.58334491 -.00241045  00000-0 -15577-1 0  9995,2 52587  53.2176 280.8133 0001568  45.3673 110.3886 15.08997368  1303,6917.399,95.428,540.349,538.18,0.0
52587.0,STARLINK-3867,PAYLOAD,2022-07-29 22:00:00,15.09118725,0.0001771999999999,53.2184,279.3136,46.7769,120.4664,-0.022632,-0.00346182,0.0,0 STARLINK-3867,1 52587U 22051BD  22210.91667824 -.00346182  00000-0 -22632-1 0  9999,2 52587  53.2184 279.3136 0001772  46.7769 120.4664 15.09118725  1305,6917.029,95.42,540.119,537.668,0.0
52587.0,STARLINK-3867,PAYLOAD,2022-07-30 14:00:01,15.08826229,0.0001921,53.2191,276.3155,45.6296,144.8698,0.0021364,0.00033864,0.0,0 STARLINK-3867,1 52587U 22051BD  22211.58334491  .00033864  00000-0  21364-2 0  9994,2 52587  53.2191 276.3155 0001921  45.6296 144.8698 15.08826229 12662,6917.922,95.438,541.116,538.4590000000002,0.0
52587.0,STARLINK-3867,PAYLOAD,2022-07-30 22:00:00,15.08849783,0.0001757,53.2187,274.8177,49.1995,152.8952,-0.00068531,-0.00011181,0.0,0 STARLINK-3867,1 52587U 22051BD  22211.91667824 -.00011181  00000-0 -68531-3 0  9998,2 52587  53.2187 274.8177 0001757  49.1995 152.8952 15.08849783  1307,6917.85,95.437,540.931,538.5,0.0
52587.0,STARLINK-3867,PAYLOAD,2022-07-31 06:00:02,15.08861059,0.0001754,53.2187,273.3215,52.7308,161.0236,-0.00095617,-0.00015482,0.0,0 STARLINK-3867,1 52587U 22051BD  22212.25002315 -.00015482  00000-0 -95617-3 0  9997,2 52587  53.2187 273.3215 0001754  52.7308 161.0236 15.08861059 12768,6917.816,95.436,540.894,538.4680000000002,0.0
52587.0,STARLINK-3867,PAYLOAD,2022-07-31 14:00:01,15.08829094,0.0001926,53.2183,271.8267,46.364,178.9471,0.0024342,0.00038654,0.0,0 STARLINK-3867,1 52587U 22051BD  22212.58334491  .00038654  00000-0  24342-2 0  9996,2 52587  53.2183 271.8267 0001926  46.3640 178.9471 15.08829094  1302,6917.9140000000025,95.438,541.111,538.446,0.0
52587.0,STARLINK-3867,PAYLOAD,2022-07-31 22:00:00,15.08850939,0.000177,53.2181,270.3287,50.08600000000001,186.8282,-0.00017049,-3.001e-05,0.0,0 STARLINK-3867,1 52587U 22051BD  22212.91667824 -.00003001  00000-0 -17049-3 0  9999,2 52587  53.2181 270.3287 0001770  50.0860 186.8282 15.08850939  1309,6917.847,95.437,540.936,538.487,0.0
52587.0,STARLINK-3867,PAYLOAD,2022-08-01 06:00:00,15.08867679,0.0001794,53.218,268.8326,53.0601,195.4554,-0.001193,-0.00019239,0.0,0 STARLINK-3867,1 52587U 22051BD  22213.25001157 -.00019239  00000-0 -11930-2 0  9990,2 52587  53.2180 268.8326 0001794  53.0601 195.4554 15.08867679 12923,6917.795999999999,95.436,540.9019999999998,538.42,0.0
52587.0,STARLINK-3867,PAYLOAD,2022-08-01 14:00:01,15.08833783,0.0001948,53.2178,267.3376,46.4185,213.7225,0.0025967,0.00041274,0.0,0 STARLINK-3867,1 52587U 22051BD  22213.58334491  .00041274  00000-0  25967-2 0  9993,2 52587  53.2178 267.3376 0001948  46.4185 213.7225 15.08833783  1301,6917.899,95.438,541.112,538.4169999999998,0.0
52587.0,STARLINK-3867,PAYLOAD,2022-08-01 22:00:00,15.08855561,0.0001757,53.2177,265.8394,48.858,222.8948,-0.002294,-0.00036628,0.0,0 STARLINK-3867,1 52587U 22051BD  22213.91667824 -.00036628  00000-0 -22940-2 0  9996,2 52587  53.2177 265.8394 0001757  48.8580 222.8948 15.08855561  1307,6917.833000000001,95.437,540.913,538.482,0.0
52587.0,STARLINK-3867,PAYLOAD,2022-08-02 06:00:02,15.08847762,0.0001773,53.2177,264.3433,50.2089,233.2007,-0.00137,-0.0002203,0.0,0 STARLINK-3867,1 52587U 22051BD  22214.25002315 -.00022030  00000-0 -13700-2 0  9998,2 52587  53.2177 264.3433 0001773  50.2089 233.2007 15.08847762 13077,6917.857,95.437,540.948,538.495,0.0
52587.0,STARLINK-3867,PAYLOAD,2022-08-02 14:00:01,15.08811044,0.000194,53.2176,262.8483,43.9631,250.9808,0.0026499,0.00042104,0.0,0 STARLINK-3867,1 52587U 22051BD  22214.58334491  .00042104  00000-0  26499-2 0  9998,2 52587  53.2176 262.8483 0001940  43.9631 250.9808 15.08811044 13127,6917.969,95.439,541.1759999999998,538.492,0.0
52587.0,STARLINK-3867,PAYLOAD,2022-08-03 06:00:00,15.08855724,0.0001869,53.218,259.8541,49.2632,268.8497,-0.0015294,-0.00024557,0.0,0 STARLINK-3867,1 52587U 22051BD  22215.25001157 -.00024557  00000-0 -15294-2 0  9998,2 52587  53.2180 259.8541 0001869  49.2632 268.8497 15.08855724 13229,6917.831999999999,95.437,540.99,538.404,0.0
52587.0,STARLINK-3867,PAYLOAD,2022-08-03 14:00:01,15.08821791,0.0002023,53.218,258.35900000000004,43.7788,285.94,0.0026585,0.00042255,0.0,0 STARLINK-3867,1 52587U 22051BD  22215.58334491  .00042255  00000-0  26585-2 0  9992,2 52587  53.2180 258.3590 0002023  43.7788 285.9400 15.08821791  1308,6917.936,95.439,541.201,538.4019999999998,0.0
